#aV2007  1 26  0  0   .00000000      96 DD+AD WGS84 FIT  NGA
## 1411 432000.00000000   900.00000000 54126  .0000000000000
+   30     1  2  3  4  5  6  7  8  9 10 11 12 13 14 16 17 18
+         19 20 21 22 23 24 25 26 27 28 29 30 31  0  0  0  0
+          0  0  0  0  0  0  0  0  0  0  0  0  0  0  0  0  0
+          0  0  0  0  0  0  0  0  0  0  0  0  0  0  0  0  0
+          0  0  0  0  0  0  0  0  0  0  0  0  0  0  0  0  0
++         0  0  0  0  0  0  0  0  0  0  0  0  0  0  0  0  0
++         0  0  0  0  0  0  0  0  0  0  0  0  0  0  0  0  0
++         0  0  0  0  0  0  0  0  0  0  0  0  0  0  0  0  0
++         0  0  0  0  0  0  0  0  0  0  0  0  0  0  0  0  0
++         0  0  0  0  0  0  0  0  0  0  0  0  0  0  0  0  0
%c cc cc ccc ccc cccc cccc cccc cccc ccccc ccccc ccccc ccccc
%c cc cc ccc ccc cccc cccc cccc cccc ccccc ccccc ccccc ccccc
%f  0.0000000  0.000000000  0.00000000000  0.000000000000000
%f  0.0000000  0.000000000  0.00000000000  0.000000000000000
%i    0    0    0    0      0      0      0      0         0
%i    0    0    0    0      0      0      0      0         0
/*      NGA, ST. LOUIS,MO.                                  
/*   EPHEMERIS COMPUTED FROM  3 DAYS OF DATA                
/* CCCCCCCCCCCCCCCCCCCCCCCCCCCCCCCCCCCCCCCCCCCCCCCCCCCCCCCCC
/* CCCCCCCCCCCCCCCCCCCCCCCCCCCCCCCCCCCCCCCCCCCCCCCCCCCCCCCCC
*  2007  1 26  7 45   .00000000                                                 
P  1  13655.189878 -21399.281881   7917.608145    103.778352                    
V  1   8097.512478  -5723.873127 -30292.846991       .024643                    
P  2  -5558.289166  14495.804150  21299.480331     76.685053                    
V  2 -27020.866444  -5970.414527  -3204.771197       .033980                    
P  3   8209.141425 -23298.350087  -9514.730083      3.757897                    
V  3  10078.201295  -7453.194664  27858.730660       .059549                    
P  4 -19827.809027   7479.026962  16169.229826       .082221                    
V  4 -19615.655056  -6400.095930 -20651.417583       .024483                    
P  5  14220.481688  21552.531287   6328.056603     20.889612                    
V  5    274.633713   8927.679801 -29787.051243       .108747                    
P  6  16711.556305   3661.588687  20512.293960    431.500964                    
V  6 -15649.594716  20444.687505   9130.993354      -.246589                    
P  7  18185.659738    444.293102  19718.927605    435.505432                    
V  7 -14024.286836  19991.212699  12616.559042      -.113577                    
P  8 -25260.988525   -169.398696  -9012.002828    -94.424275                    
V  8 -10344.384149  -4454.126973  29050.951438      -.013958                    
P  9  13940.904589  14848.883665 -17752.488278     54.756304                    
V  9 -21232.354314  -2244.757912 -18953.983103       .016392                    
P 10    276.784834  24402.030687   9972.498602     96.472092                    
V 10  -6134.806862 -11627.638257  28639.116024       .006426                    
P 11 -16855.374015 -13433.036954 -15794.393257      4.970375                    
V 11  20114.958395  -2072.682458 -19538.093730       .013521                    
P 12  12268.236874  22726.237579   6400.471454    -58.333030                    
V 12     24.125190   8401.623432 -30343.579782       .053127                    
P 13 -17301.716778   -746.763692  20033.552727    136.753871                    
V 13  17048.980800 -19073.558391  13994.293924       .040058                    
P 14  20598.030451 -14790.790715  -7698.950892      5.988305                    
V 14  -5307.987434   8552.302788 -30362.067551       .012822                    
P 16   4181.888929 -21480.558393  15040.147435    116.088861                    
V 16   7670.719288  17504.885833  23117.924905       .037512                    
P 17 -20611.129028  14725.971082  -7784.175900     81.080211                    
V 17   4581.375633  -9217.727750 -29693.464940      -.014942                    
P 18  16420.201760   6886.898801 -19673.886563   -253.880448                    
V 18   5801.095460  24540.299386  13026.205789       .000438                    
P 19   1870.320418 -19474.282290 -17825.972392     60.957685                    
V 19  17502.996193 -14822.733832  18027.815209       .043091                    
P 20 -13463.222121 -21354.763754   8231.336969    -22.111795                    
V 20   -793.885283 -10907.871157 -29218.109499      -.001424                    
P 21  26337.310168   4789.310684  -2183.619077     69.529117                    
V 21   2065.406133   3559.514767  30777.608253       .011045                    
P 22  13749.856083  -7287.363873 -21364.214924    164.112031                    
V 22   7710.944317  26433.900902  -4041.624681       .019046                    
P 23  -9999.999565 -11238.810088  21801.982948    147.379887                    
V 23  18737.285181 -20610.169939  -2209.175631       .014547                    
P 24  11487.753295  16032.361500  17864.586000     71.896178                    
V 24 -22114.947545  -3962.786689  18266.637189       .032867                    
P 25  11023.692414 -13353.352497  20595.428917    370.712074                    
V 25  24958.125165   3665.930126 -11050.064523      -.131499                    
P 26  -2603.255606  19628.158611 -17819.138092    -12.555840                    
V 26 -16106.543249  14993.483358  19877.513593      -.179949                    
P 27 -26191.659685  -5095.108456   1831.646688     90.585797                    
V 27   1885.793297  -2269.318251  31498.152328       .020457                    
P 28 -14957.548735   2429.358541 -21515.429558      8.757525                    
V 28  -8129.168131 -26848.062201   2236.582648      -.008790                    
P 29  -6724.889605  21320.951738 -13840.087551    328.655656                    
V 29 -13332.386608  12295.995034  25346.897854       .141010                    
P 30  16729.564458  13807.165009  15097.931777     23.641346                    
V 30   4641.631174  19296.244430 -22232.305113       .010281                    
P 31  17049.491761  -9521.844328  18225.798807       .885502                    
V 31  21966.106457   5994.382885 -17558.978763       .048217                    
EOF
